{
    "links": {
        "self": "http://www.neowsapp.com/rest/v1/neo/3251425?api_key=iIulBulltgU6a56xZRHN4H3l9WmuAYTsLGpBGhQ2"
    },
    "id": "3251425",
    "neo_reference_id": "3251425",
    "name": "(2004 RW2)",
    "designation": "2004 RW2",
    "nasa_jpl_url": "http://ssd.jpl.nasa.gov/sbdb.cgi?sstr=3251425",
    "absolute_magnitude_h": 24.4,
    "estimated_diameter": {
        "kilometers": {
            "estimated_diameter_min": 0.0350392641,
            "estimated_diameter_max": 0.0783501764
        },
        "meters": {
            "estimated_diameter_min": 35.0392641108,
            "estimated_diameter_max": 78.3501764334
        },
        "miles": {
            "estimated_diameter_min": 0.0217723826,
            "estimated_diameter_max": 0.0486845275
        },
        "feet": {
            "estimated_diameter_min": 114.9582192654,
            "estimated_diameter_max": 257.0543928497
        }
    },
    "is_potentially_hazardous_asteroid": false,
    "close_approach_data": [
        {
            "close_approach_date": "2004-09-06",
            "close_approach_date_full": "2004-Sep-06 10:56",
            "epoch_date_close_approach": 1094468160000,
            "relative_velocity": {
                "kilometers_per_second": "6.953244886",
                "kilometers_per_hour": "25031.6815896509",
                "miles_per_hour": "15553.7134855251"
            },
            "miss_distance": {
                "astronomical": "0.0380351635",
                "lunar": "14.7956786015",
                "kilometers": "5689979.444701745",
                "miles": "3535589.279484281"
            },
            "orbiting_body": "Earth"
        }
    ],
    "orbital_data": {
        "orbit_id": "11",
        "orbit_determination_date": "2017-04-06 09:12:23",
        "first_observation_date": "2004-09-06",
        "last_observation_date": "2004-09-17",
        "data_arc_in_days": 11,
        "observations_used": 64,
        "orbit_uncertainty": "8",
        "minimum_orbit_intersection": ".0380211",
        "jupiter_tisserand_invariant": "4.636",
        "epoch_osculation": "2453256.5",
        "eccentricity": ".305774475536703",
        "semi_major_axis": "1.425674081821133",
        "inclination": "8.368216878002158",
        "ascending_node_longitude": "334.3680766782425",
        "orbital_period": "621.7686322475081",
        "perihelion_distance": ".9897393371660056",
        "perihelion_argument": "45.85109620304643",
        "aphelion_distance": "1.861608826476261",
        "perihelion_time": "2453287.338569247407",
        "mean_anomaly": "342.1446686865876",
        "mean_motion": ".5789935055081621",
        "equinox": "J2000",
        "orbit_class": {
            "orbit_class_type": "APO",
            "orbit_class_description": "Near-Earth asteroid orbits which cross the Earth’s orbit similar to that of 1862 Apollo",
            "orbit_class_range": "a (semi-major axis) > 1.0 AU; q (perihelion) < 1.017 AU"
        }
    },
    "is_sentry_object": false
}